{"type":"FeatureCollection","features":[{"type":"Feature","geometry":{"type":"Polygon","coordinates":[[[-77.60776519776047,38.44122007880142],[-77.60776519776049,38.44122007880142],[-77.58373260498705,38.44122007880142],[-77.57171630860034,38.440951171994776],[-77.54768371582692,38.440951171994776],[-77.53601074219411,38.44068226418636],[-77.5239944458074,38.44068226418636],[-77.51197814942068,38.440413355376165],[-77.48794555664725,38.440413355376165],[-77.47592926026054,38.44014444556421],[-77.46391296387384,38.44014444556421],[-77.45189666748713,38.43987553475049],[-77.4278640747137,38.43987553475049],[-77.41584777832698,38.43960662293501],[-77.40383148194027,38.43960662293501],[-77.39181518555357,38.43933771011776],[-77.36778259278013,38.43933771011776],[-77.35576629639343,38.43906879629876],[-77.34375000000671,38.43906879629876],[-77.33173370362,38.438799881478005],[-77.31971740723328,38.438799881478005],[-77.30770111084658,38.43853096565549],[-77.29568481445988,38.43853096565549],[-77.28366851807316,38.43826204883122],[-77.27199554444036,38.43826204883122],[-77.25997924805365,38.43799313100521],[-77.23594665528022,38.43799313100521],[-77.23560333252631,38.44740465886021],[-77.23560333252631,38.457083807178485],[-77.2352600097724,38.46676165703023],[-77.2352600097724,38.47616943275794],[-77.2349166870185,38.48584472144666],[-77.2349166870185,38.495518711366486],[-77.23457336426459,38.505191402416],[-77.23457336426459,38.51486279449398],[-77.2342300415107,38.52426429134712],[-77.2342300415107,38.533933121268426],[-77.23388671875678,38.54360065191821],[-77.23388671875678,38.55326688319587],[-77.23354339600287,38.562663362220825],[-77.23354339600287,38.57232703055367],[-77.23320007324897,38.58198939921633],[-77.23320007324897,38.59165046810885],[-77.23285675049506,38.60131023713141],[-77.23285675049506,38.61096870618437],[-77.23251342774115,38.6203576380301],[-77.23251342774115,38.630013542962736],[-77.23217010498725,38.63966814763057],[-77.23217010498725,38.64932145193462],[-77.23182678223334,38.65897345577603],[-77.23182678223334,38.66862415905613],[-77.23148345947943,38.67800554027852],[-77.24349975586614,38.6782735616764],[-77.25585937500676,38.6782735616764],[-77.26787567139347,38.6785415820706],[-77.27989196778019,38.6785415820706],[-77.29190826416689,38.67880960146114],[-77.3039245605536,38.67880960146114],[-77.31594085694032,38.679077619847995],[-77.32795715332702,38.679077619847995],[-77.33997344971374,38.67934563723118],[-77.36400604248716,38.67934563723118],[-77.37602233887387,38.67961365361068],[-77.38803863526059,38.67961365361068],[-77.40005493164729,38.679881668986496],[-77.41207122803401,38.679881668986496],[-77.4240875244207,38.68014968335863],[-77.44846343994804,38.68014968335863],[-77.46047973633476,38.680417696727076],[-77.47249603272147,38.680417696727076],[-77.48451232910818,38.68068570909184],[-77.50854492188162,38.68068570909184],[-77.52056121826831,38.68095372045291],[-77.54459381104175,38.68095372045291],[-77.55661010742847,38.681221730810286],[-77.56862640381517,38.681221730810286],[-77.58064270020189,38.68148974016396],[-77.60501861572924,38.68148974016396],[-77.61703491211593,38.68175774851395],[-77.61703491211593,38.662458581991835],[-77.61737823486983,38.65280704778619],[-77.61737823486983,38.63350007797882],[-77.61772155762374,38.624112866671005],[-77.61772155762374,38.60479816758588],[-77.61806488037766,38.59513886798529],[-77.61806488037766,38.57581636916602],[-77.61840820313157,38.566421609891115],[-77.61840820313157,38.54709138532939],[-77.61875152588547,38.53742432388572],[-77.61875152588547,38.51835492238342],[-77.61909484863938,38.50868399940335],[-77.61909484863938,38.49901177741522],[-77.61943817139328,38.489338256520206],[-77.61943817139328,38.470256117017485],[-77.61978149414719,38.46057873608148],[-77.61978149414719,38.441488984606295],[-77.60776519776047,38.44122007880142]]]},"properties":{"contractnumber":"","datahorizontalresolution":"1","datahorizontalresolutionuom":"ft","datastoragesize":"","datastoragesizeuom":"","featurecode":"","globalid":"{3C35F2D4-1DC5-407E-9644-9F5E771745A6}","groupname":"MCINCR","imagecollectionsensor":"","imagefile":"","imagelicenserestriction":"","imagesource":"","imagespectrum":"","inst_abbr":"QU","installationcode":"M00264","instwebapp":"1","iscui":"","mediaid":"","mosaicdatasetname":"QU_dsm_1b_1ft_2023","numberbands":"1","objectid":"1138","productname":"QU_dsm_1b_1ft_2023","projectid":"","rastercurrency":"Current: Less than 3 years","rasterfootprintidpk":"","rasterservice":"","rastertype":"DSM","sdsfeaturedescription":"","sdsfeaturename":"QU_dsm_1b_1ft_2023","sdsid":"","sdsmetadataid":"","site_abbr":"","site_name":"","sourcedate":"12/31/22, 7:00 PM","year":"2023"},"id":1138}]}